#aV2006  3 12  0  0   .00000000      96 DD+AD WGS84 FIT  NGA
## 1366       .00000000   900.00000000 53806  .0000000000000
+   29     1  2  3  4  5  6  7  8  9 10 11 13 14 15 16 17 18
+         19 20 21 22 23 24 25 26 27 28 29 30  0  0  0  0  0
+          0  0  0  0  0  0  0  0  0  0  0  0  0  0  0  0  0
+          0  0  0  0  0  0  0  0  0  0  0  0  0  0  0  0  0
+          0  0  0  0  0  0  0  0  0  0  0  0  0  0  0  0  0
++         0  0  0  0  0  0  0  0  0  0  0  0  0  0  0  0  0
++         0  0  0  0  0  0  0  0  0  0  0  0  0  0  0  0  0
++         0  0  0  0  0  0  0  0  0  0  0  0  0  0  0  0  0
++         0  0  0  0  0  0  0  0  0  0  0  0  0  0  0  0  0
++         0  0  0  0  0  0  0  0  0  0  0  0  0  0  0  0  0
%c cc cc ccc ccc cccc cccc cccc cccc ccccc ccccc ccccc ccccc
%c cc cc ccc ccc cccc cccc cccc cccc ccccc ccccc ccccc ccccc
%f  0.0000000  0.000000000  0.00000000000  0.000000000000000
%f  0.0000000  0.000000000  0.00000000000  0.000000000000000
%i    0    0    0    0      0      0      0      0         0
%i    0    0    0    0      0      0      0      0         0
/*      NGA, ST. LOUIS,MO.                                  
/*   EPHEMERIS COMPUTED FROM  3 DAYS OF DATA                
/* CCCCCCCCCCCCCCCCCCCCCCCCCCCCCCCCCCCCCCCCCCCCCCCCCCCCCCCCC
/* CCCCCCCCCCCCCCCCCCCCCCCCCCCCCCCCCCCCCCCCCCCCCCCCCCCCCCCCC
*  2006  3 12 10 45   .00000000                                                 
P  1  18897.393833  11989.874908 -14136.842516     41.091101                    
V  1   8609.374057  16141.228339  24810.622666       .019434                    
P  2 -16460.558778   -274.296294 -21082.602200    -14.870117                    
V  2  10254.126178 -24144.054202  -7973.777779       .018274                    
P  3  20401.019003   5303.337185  16171.313792     81.245125                    
V  3  11637.773084  17430.524150 -19894.175802       .030222                    
P  4 -11718.802295 -10698.544091 -21295.576105    174.549320                    
V  4  12465.824613 -24003.260711   5557.229531       .110263                    
P  5 -17329.085349  13871.885540 -14654.428460   -371.760209                    
V  5 -18586.336490    500.826371  22920.461861       .797660                    
P  6   1880.130165  21410.152723 -15360.848956    395.742085                    
V  6 -14100.454880 -14369.618708 -21565.799976       .295493                    
P  7  -1540.575663  19250.499407 -17870.606946    511.865188                    
V  7 -16244.748297 -17095.916500 -16824.061524       .066608                    
P  8  -4265.532027 -18678.671630  18071.169361    -59.200295                    
V  8  12154.105961 -20022.386846 -18072.757423      -.011480                    
P  9 -14800.561732  19931.043257   8483.638144     11.472566                    
V  9   1723.527433 -11862.580052  29336.629314       .016886                    
P 10 -26690.377710   1456.654889   -514.163410     80.032825                    
V 10    394.435354  -2132.718526 -31848.785924       .006754                    
P 11  13415.739682 -21125.002236   8467.524837    312.917989                    
V 11   1197.321425  11882.781901  27782.856373       .027190                    
P 13  -3159.013286 -21992.575601 -14676.020753     46.931794                    
V 13  11343.839106  14572.986586 -24347.707285       .025643                    
P 14  15792.479207  21335.304908  -1391.792071    -17.982837                    
V 14   -597.701033   2650.573292  32199.314526       .006797                    
P 15   3462.520572  19238.962194  17633.015383    579.094412                    
V 15 -12880.830123  19014.934010 -18421.062502       .059974                    
P 16  25519.596576   2776.960065  -6923.391337     30.720509                    
V 16  -8644.465272   3270.367561 -30086.665845       .020028                    
P 17 -15290.248919 -21776.013688     32.444222     66.537145                    
V 17   2293.198682  -1534.803414  31690.820617       .065571                    
P 18    -65.452388  15307.882561  21793.362129   -225.303549                    
V 18 -27442.917791   1011.386430  -1085.783858      -.019934                    
P 19  13860.534818  -6648.314772  21761.662648    -19.143982                    
V 19  14264.965685  23392.521423  -1912.980466       .012264                    
P 20  17670.522446 -12586.410580 -15389.303940    -30.853504                    
V 20  19507.580515    144.658906  22445.845628       .008490                    
P 21  -3256.513519  23728.515049  10947.505401     12.703544                    
V 21  -9319.711889  11013.037388 -27261.315956       .031499                    
P 22  14569.858950  12522.364557  18494.976446     75.405552                    
V 22 -23109.910594   2365.793377  16744.518040       .031890                    
P 23   7252.021837 -14727.089075 -20935.919150    147.445692                    
V 23  15897.362070  21086.043110  -9514.323207      -.012790                    
P 24   -163.540242 -21795.007655 -14769.896062     92.154004                    
V 24  11039.826948 -15961.464260  23307.776428       .029627                    
P 25  13534.647313   7144.727324 -21298.103736    -32.565651                    
V 25  -9734.270683  26299.488158   2703.632899       .290910                    
P 26 -15687.935651   1492.928458  21117.222852    -57.742037                    
V 26 -14998.456218 -23039.923044  -8777.903078      -.094495                    
P 27   1351.170067 -24292.907775  10818.521116     39.471270                    
V 27   7234.952074 -11109.341179 -27717.418574       .016336                    
P 28 -11524.042075 -13362.887046  20228.284455     31.678477                    
V 28  24855.269066  -2637.388385  12247.813314      -.008138                    
P 29 -17619.184041  -1686.514835  20133.661650    558.295181                    
V 29 -13966.361776 -20597.107081 -13863.979570       .104414                    
P 30  -7813.660454  15692.812394 -20201.028525     27.746540                    
V 30 -25084.630792   1897.749052  11447.731444       .003017                    
EOF
